[{"OBJECT_NAME":"IRIDIUM 147","OBJECT_ID":"2018-047E","EPOCH":"2026-03-09T16:30:46.128960","MEAN_MOTION":14.34216716,"ECCENTRICITY":0.00022292,"INCLINATION":86.3976,"RA_OF_ASC_NODE":129.9478,"ARG_OF_PERICENTER":99.0413,"MEAN_ANOMALY":261.1036,"EPHEMERIS_TYPE":0,"CLASSIFICATION_TYPE":"U","NORAD_CAT_ID":43480,"ELEMENT_SET_NO":999,"REV_AT_EPOCH":40822,"BSTAR":8.9014334e-5,"MEAN_MOTION_DOT":2.69e-6,"MEAN_MOTION_DDOT":0},{"OBJECT_NAME":"NOAA 16 DEB","OBJECT_ID":"2000-055FW","EPOCH":"2026-03-09T04:58:11.044992","MEAN_MOTION":14.36212465,"ECCENTRICITY":0.00246821,"INCLINATION":98.9728,"RA_OF_ASC_NODE":200.2532,"ARG_OF_PERICENTER":170.4935,"MEAN_ANOMALY":189.6721,"EPHEMERIS_TYPE":0,"CLASSIFICATION_TYPE":"U","NORAD_CAT_ID":41270,"ELEMENT_SET_NO":999,"REV_AT_EPOCH":52651,"BSTAR":0.0038118464,"MEAN_MOTION_DOT":0.00011131,"MEAN_MOTION_DDOT":0}]
